{
  "type": "FeatureCollection",
  "features": [
    {
      "type": "Feature",
      "properties": {
        "norad_id": 33901,
        "name": "COSMOS 2251 DEB",
        "group": "cosmos-2251-debris",
        "lat": 70.07780564125731,
        "lon": 171.49784334672364,
        "alt_km": 504.4117748780218,
        "timestamp": "2025-12-14T18:52:55.896237+00:00",
        "meta_object_name": "COSMOS 2251 DEB",
        "meta_object_id": "1993-036DE",
        "meta_epoch": "2025-12-13T13:55:43.391712",
        "meta_mean_motion": 15.16088901,
        "meta_eccentricity": 0.00316517,
        "meta_inclination": 73.7743,
        "meta_ra_of_asc_node": 47.5165,
        "meta_arg_of_pericenter": 179.4661,
        "meta_mean_anomaly": 180.6572,
        "meta_ephemeris_type": 0,
        "meta_classification_type": "U",
        "meta_norad_cat_id": 33901,
        "meta_element_set_no": 999,
        "meta_rev_at_epoch": 89526,
        "meta_bstar": 0.0028650322,
        "meta_mean_motion_dot": 0.00056278,
        "meta_mean_motion_ddot": 0,
        "tle_line1": "1 33901U 93036DE  25347.58036333  .00056278  00000+0  28650-2 0  9999",
        "tle_line2": "2 33901  73.7743  47.5165 0031651 179.4661 180.6572 15.16088901895265"
      },
      "geometry": {
        "type": "Point",
        "coordinates": [
          171.49784334672364,
          70.07780564125731
        ]
      }
    },
    {
      "type": "Feature",
      "properties": {
        "norad_id": 33905,
        "name": "COSMOS 2251 DEB",
        "group": "cosmos-2251-debris",
        "lat": -51.556493874291036,
        "lon": -68.49841214093125,
        "alt_km": 789.8905153574588,
        "timestamp": "2025-12-14T18:52:55.896247+00:00",
        "meta_object_name": "COSMOS 2251 DEB",
        "meta_object_id": "1993-036DJ",
        "meta_epoch": "2025-12-13T23:19:56.540352",
        "meta_mean_motion": 14.35392867,
        "meta_eccentricity": 0.00587793,
        "meta_inclination": 73.8872,
        "meta_ra_of_asc_node": 314.3632,
        "meta_arg_of_pericenter": 203.6501,
        "meta_mean_anomaly": 213.5669,
        "meta_ephemeris_type": 0,
        "meta_classification_type": "U",
        "meta_norad_cat_id": 33905,
        "meta_element_set_no": 999,
        "meta_rev_at_epoch": 87705,
        "meta_bstar": 0.00083915049,
        "meta_mean_motion_dot": 2.43e-05,
        "meta_mean_motion_ddot": 0,
        "tle_line1": "1 33905U 93036DJ  25347.97218218  .00002430  00000+0  83915-3 0  9997",
        "tle_line2": "2 33905  73.8872 314.3632 0058779 203.6501 213.5669 14.35392867877059"
      },
      "geometry": {
        "type": "Point",
        "coordinates": [
          -68.49841214093125,
          -51.556493874291036
        ]
      }
    },
    {
      "type": "Feature",
      "properties": {
        "norad_id": 33906,
        "name": "COSMOS 2251 DEB",
        "group": "cosmos-2251-debris",
        "lat": -10.154612582433938,
        "lon": -45.35524304754729,
        "alt_km": 680.3505211634729,
        "timestamp": "2025-12-14T18:52:55.896257+00:00",
        "meta_object_name": "COSMOS 2251 DEB",
        "meta_object_id": "1993-036DK",
        "meta_epoch": "2025-12-13T23:24:42.934752",
        "meta_mean_motion": 14.57123256,
        "meta_eccentricity": 0.00366705,
        "meta_inclination": 74.0304,
        "meta_ra_of_asc_node": 319.1256,
        "meta_arg_of_pericenter": 348.3099,
        "meta_mean_anomaly": 67.3502,
        "meta_ephemeris_type": 0,
        "meta_classification_type": "U",
        "meta_norad_cat_id": 33906,
        "meta_element_set_no": 999,
        "meta_rev_at_epoch": 88026,
        "meta_bstar": 0.002316531,
        "meta_mean_motion_dot": 0.00010526,
        "meta_mean_motion_ddot": 0,
        "tle_line1": "1 33906U 93036DK  25347.97549693  .00010526  00000+0  23165-2 0  9997",
        "tle_line2": "2 33906  74.0304 319.1256 0036670 348.3099  67.3502 14.57123256880269"
      },
      "geometry": {
        "type": "Point",
        "coordinates": [
          -45.35524304754729,
          -10.154612582433938
        ]
      }
    },
    {
      "type": "Feature",
      "properties": {
        "norad_id": 33907,
        "name": "COSMOS 2251 DEB",
        "group": "cosmos-2251-debris",
        "lat": 49.948561100287726,
        "lon": -169.9266187407006,
        "alt_km": 725.2385195997758,
        "timestamp": "2025-12-14T18:52:55.896267+00:00",
        "meta_object_name": "COSMOS 2251 DEB",
        "meta_object_id": "1993-036DL",
        "meta_epoch": "2025-12-13T21:16:26.070240",
        "meta_mean_motion": 14.30520572,
        "meta_eccentricity": 0.01120658,
        "meta_inclination": 74.0708,
        "meta_ra_of_asc_node": 31.5686,
        "meta_arg_of_pericenter": 86.7179,
        "meta_mean_anomaly": 84.7829,
        "meta_ephemeris_type": 0,
        "meta_classification_type": "U",
        "meta_norad_cat_id": 33907,
        "meta_element_set_no": 999,
        "meta_rev_at_epoch": 86596,
        "meta_bstar": 0.0018329151,
        "meta_mean_motion_dot": 5.094e-05,
        "meta_mean_motion_ddot": 0,
        "tle_line1": "1 33907U 93036DL  25347.88641285  .00005094  00000+0  18329-2 0  9998",
        "tle_line2": "2 33907  74.0708  31.5686 0112065  86.7179  84.7829 14.30520572865963"
      },
      "geometry": {
        "type": "Point",
        "coordinates": [
          -169.9266187407006,
          49.948561100287726
        ]
      }
    },
    {
      "type": "Feature",
      "properties": {
        "norad_id": 33908,
        "name": "COSMOS 2251 DEB",
        "group": "cosmos-2251-debris",
        "lat": -11.817130054878103,
        "lon": -161.34426636800407,
        "alt_km": 956.6489144465077,
        "timestamp": "2025-12-14T18:52:55.896278+00:00",
        "meta_object_name": "COSMOS 2251 DEB",
        "meta_object_id": "1993-036DM",
        "meta_epoch": "2025-12-13T15:38:45.916512",
        "meta_mean_motion": 14.07350798,
        "meta_eccentricity": 0.02230241,
        "meta_inclination": 73.8379,
        "meta_ra_of_asc_node": 204.1471,
        "meta_arg_of_pericenter": 227.5118,
        "meta_mean_anomaly": 130.6986,
        "meta_ephemeris_type": 0,
        "meta_classification_type": "U",
        "meta_norad_cat_id": 33908,
        "meta_element_set_no": 999,
        "meta_rev_at_epoch": 85486,
        "meta_bstar": 0.0023881861,
        "meta_mean_motion_dot": 5.011e-05,
        "meta_mean_motion_ddot": 0,
        "tle_line1": "1 33908U 93036DM  25347.65192033  .00005011  00000+0  23882-2 0  9995",
        "tle_line2": "2 33908  73.8379 204.1471 0223024 227.5118 130.6986 14.07350798854868"
      },
      "geometry": {
        "type": "Point",
        "coordinates": [
          -161.34426636800407,
          -11.817130054878103
        ]
      }
    },
    {
      "type": "Feature",
      "properties": {
        "norad_id": 33911,
        "name": "COSMOS 2251 DEB",
        "group": "cosmos-2251-debris",
        "lat": -66.05629426526224,
        "lon": 17.833819138540562,
        "alt_km": 661.2779113440647,
        "timestamp": "2025-12-14T18:52:55.896288+00:00",
        "meta_object_name": "COSMOS 2251 DEB",
        "meta_object_id": "1993-036DQ",
        "meta_epoch": "2025-12-13T16:15:57.720096",
        "meta_mean_motion": 14.74887314,
        "meta_eccentricity": 0.00141486,
        "meta_inclination": 74.0904,
        "meta_ra_of_asc_node": 160.0265,
        "meta_arg_of_pericenter": 99.4996,
        "meta_mean_anomaly": 26.2897,
        "meta_ephemeris_type": 0,
        "meta_classification_type": "U",
        "meta_norad_cat_id": 33911,
        "meta_element_set_no": 999,
        "meta_rev_at_epoch": 88658,
        "meta_bstar": 0.0022738194,
        "meta_mean_motion_dot": 0.00015285,
        "meta_mean_motion_ddot": 0,
        "tle_line1": "1 33911U 93036DQ  25347.67775139  .00015285  00000+0  22738-2 0  9998",
        "tle_line2": "2 33911  74.0904 160.0265 0014148  99.4996  26.2897 14.74887314886583"
      },
      "geometry": {
        "type": "Point",
        "coordinates": [
          17.833819138540562,
          -66.05629426526224
        ]
      }
    },
    {
      "type": "Feature",
      "properties": {
        "norad_id": 33912,
        "name": "COSMOS 2251 DEB",
        "group": "cosmos-2251-debris",
        "lat": -29.323460535296228,
        "lon": 176.6151621848791,
        "alt_km": 721.5136677999508,
        "timestamp": "2025-12-14T18:52:55.896298+00:00",
        "meta_object_name": "COSMOS 2251 DEB",
        "meta_object_id": "1993-036DR",
        "meta_epoch": "2025-12-13T23:43:57.676800",
        "meta_mean_motion": 14.51904497,
        "meta_eccentricity": 0.0011438,
        "meta_inclination": 74.0336,
        "meta_ra_of_asc_node": 187.372,
        "meta_arg_of_pericenter": 266.303,
        "meta_mean_anomaly": 214.2642,
        "meta_ephemeris_type": 0,
        "meta_classification_type": "U",
        "meta_norad_cat_id": 33912,
        "meta_element_set_no": 999,
        "meta_rev_at_epoch": 88451,
        "meta_bstar": 0.00087715447,
        "meta_mean_motion_dot": 3.513e-05,
        "meta_mean_motion_ddot": 0,
        "tle_line1": "1 33912U 93036DR  25347.98886200  .00003513  00000+0  87715-3 0  9993",
        "tle_line2": "2 33912  74.0336 187.3720 0011438 266.3030 214.2642 14.51904497884519"
      },
      "geometry": {
        "type": "Point",
        "coordinates": [
          176.6151621848791,
          -29.323460535296228
        ]
      }
    }
  ]
}